start=new Date('2022-06-28T00:00:00.000Z').valueOf();
sats=[{"MEAN_MOTION_DDOT":"0.0000000000000","ECCENTRICITY":"0.00029750","CLASSIFICATION_TYPE":"U","SITE":"AFWTR","EPHEMERIS_TYPE":"0","COUNTRY_CODE":"US","MEAN_MOTION":"14.96706542","INCLINATION":"69.9996","GP_ID":"206992808","PERIOD":"96.211","MEAN_ANOMALY":"93.9077","MEAN_MOTION_DOT":"-0.00000354","PERIAPSIS":"575.014","MEAN_ELEMENT_THEORY":"SGP4","RCS_SIZE":"LARGE","OBJECT_NAME":"STARLINK-3087","APOAPSIS":"579.152","BSTAR":"-0.00002293400000","REV_AT_EPOCH":"4414","TLE_LINE2":"2 49175  69.9996  79.8985 0002975 266.1741  93.9077 14.96706542 44144","EPOCH":"2022-06-27T21:31:20.684352","TIME_SYSTEM":"UTC","CENTER_NAME":"EARTH","FILE":"3504144","OBJECT_TYPE":"PAYLOAD","ARG_OF_PERICENTER":"266.1741","SEMIMAJOR_AXIS":"6955.218","ELEMENT_SET_NO":"999","TLE_LINE1":"1 49175U 21082AX  22178.89676718 -.00000354  00000-0 -22934-4 0  9999","RA_OF_ASC_NODE":"79.8985","DECAY_DATE":null,"REF_FRAME":"TEME","NORAD_CAT_ID":"49175","LAUNCH_DATE":"2021-09-14","OBJECT_ID":"2021-082AX"},{"OBJECT_TYPE":"PAYLOAD","ARG_OF_PERICENTER":"272.1906","FILE":"3504144","OBJECT_ID":"2021-082AY","LAUNCH_DATE":"2021-09-14","RA_OF_ASC_NODE":"59.7861","TLE_LINE1":"1 49176U 21082AY  22178.84274520 -.00000166  00000-0 -65149-5 0  9997","SEMIMAJOR_AXIS":"6955.222","ELEMENT_SET_NO":"999","NORAD_CAT_ID":"49176","REF_FRAME":"TEME","DECAY_DATE":null,"INCLINATION":"69.9968","GP_ID":"206993058","MEAN_ANOMALY":"87.8914","PERIOD":"96.211","CLASSIFICATION_TYPE":"U","ECCENTRICITY":"0.00029550","MEAN_MOTION_DDOT":"0.0000000000000","COUNTRY_CODE":"US","MEAN_MOTION":"14.96705246","SITE":"AFWTR","EPHEMERIS_TYPE":"0","REV_AT_EPOCH":"4463","TLE_LINE2":"2 49176  69.9968  59.7861 0002955 272.1906  87.8914 14.96705246 44638","CENTER_NAME":"EARTH","TIME_SYSTEM":"UTC","EPOCH":"2022-06-27T20:13:33.185280","MEAN_ELEMENT_THEORY":"SGP4","RCS_SIZE":"LARGE","MEAN_MOTION_DOT":"-0.00000166","PERIAPSIS":"575.032","APOAPSIS":"579.142","BSTAR":"-0.00000651490000","OBJECT_NAME":"STARLINK-3069"},{"MEAN_ANOMALY":"95.8429","PERIOD":"96.211","INCLINATION":"69.9956","GP_ID":"206993810","SITE":"AFWTR","EPHEMERIS_TYPE":"0","COUNTRY_CODE":"US","MEAN_MOTION":"14.96713265","MEAN_MOTION_DDOT":"0.0000000000000","CLASSIFICATION_TYPE":"U","ECCENTRICITY":"0.00029250","EPOCH":"2022-06-27T20:41:42.376992","CENTER_NAME":"EARTH","TIME_SYSTEM":"UTC","REV_AT_EPOCH":"4583","TLE_LINE2":"2 49177  69.9956  59.7383 0002925 264.2396  95.8429 14.96713265 45830","OBJECT_NAME":"STARLINK-3103","APOAPSIS":"579.096","BSTAR":"-0.00000428790000","MEAN_MOTION_DOT":"-0.00000141","PERIAPSIS":"575.028","MEAN_ELEMENT_THEORY":"SGP4","RCS_SIZE":"LARGE","OBJECT_TYPE":"PAYLOAD","ARG_OF_PERICENTER":"264.2396","FILE":"3504144","LAUNCH_DATE":"2021-09-14","OBJECT_ID":"2021-082AZ","REF_FRAME":"TEME","DECAY_DATE":null,"NORAD_CAT_ID":"49177","ELEMENT_SET_NO":"999","SEMIMAJOR_AXIS":"6955.197","TLE_LINE1":"1 49177U 21082AZ  22178.86229603 -.00000141  00000-0 -42879-5 0  9990","RA_OF_ASC_NODE":"59.7383"},{"MEAN_ANOMALY":"95.4547","PERIOD":"96.107","INCLINATION":"70.0004","GP_ID":"206994056","SITE":"AFWTR","EPHEMERIS_TYPE":"0","COUNTRY_CODE":"US","MEAN_MOTION":"14.98323516","MEAN_MOTION_DDOT":"0.0000000000000","ECCENTRICITY":"0.00027830","CLASSIFICATION_TYPE":"U","EPOCH":"2022-06-27T20:45:38.597184","CENTER_NAME":"EARTH","TIME_SYSTEM":"UTC","REV_AT_EPOCH":"4479","TLE_LINE2":"2 49178  70.0004 100.3566 0002783 264.6294  95.4547 14.98323516 44796","OBJECT_NAME":"STARLINK-3086","APOAPSIS":"574.012","BSTAR":"0.00000851580000","MEAN_MOTION_DOT":"0.00000009","PERIAPSIS":"570.144","MEAN_ELEMENT_THEORY":"SGP4","RCS_SIZE":"LARGE","OBJECT_TYPE":"PAYLOAD","ARG_OF_PERICENTER":"264.6294","FILE":"3504144","LAUNCH_DATE":"2021-09-14","OBJECT_ID":"2021-082BA","REF_FRAME":"TEME","DECAY_DATE":null,"NORAD_CAT_ID":"49178","SEMIMAJOR_AXIS":"6950.213","ELEMENT_SET_NO":"999","TLE_LINE1":"1 49178U 21082BA  22178.86503006  .00000009  00000-0  85158-5 0  9991","RA_OF_ASC_NODE":"100.3566"},{"OBJECT_TYPE":"PAYLOAD","ARG_OF_PERICENTER":"268.9317","FILE":"3504144","LAUNCH_DATE":"2021-09-14","OBJECT_ID":"2021-082BB","SEMIMAJOR_AXIS":"6955.204","ELEMENT_SET_NO":"999","TLE_LINE1":"1 49179U 21082BB  22178.91935300  .00000556  00000-0  56604-4 0  9994","RA_OF_ASC_NODE":"59.5919","DECAY_DATE":null,"REF_FRAME":"TEME","NORAD_CAT_ID":"49179","INCLINATION":"69.9964","GP_ID":"206992309","MEAN_ANOMALY":"91.1558","PERIOD":"96.211","MEAN_MOTION_DDOT":"0.0000000000000","ECCENTRICITY":"0.00024740","CLASSIFICATION_TYPE":"U","SITE":"AFWTR","EPHEMERIS_TYPE":"0","COUNTRY_CODE":"US","MEAN_MOTION":"14.96711105","REV_AT_EPOCH":"4464","TLE_LINE2":"2 49179  69.9964  59.5919 0002474 268.9317  91.1558 14.96711105 44648","EPOCH":"2022-06-27T22:03:52.099200","TIME_SYSTEM":"UTC","CENTER_NAME":"EARTH","MEAN_MOTION_DOT":"0.00000556","PERIAPSIS":"575.348","MEAN_ELEMENT_THEORY":"SGP4","RCS_SIZE":"LARGE","OBJECT_NAME":"STARLINK-3043","APOAPSIS":"578.789","BSTAR":"0.00005660400000"},{"EPOCH":"2022-06-27T21:03:16.996320","TIME_SYSTEM":"UTC","CENTER_NAME":"EARTH","TLE_LINE2":"2 49180  69.9991  79.9361 0002905 264.3505  95.7322 14.96716048 45310","REV_AT_EPOCH":"4531","OBJECT_NAME":"STARLINK-3050","BSTAR":"0.00008571100000","APOAPSIS":"579.074","PERIAPSIS":"575.033","MEAN_MOTION_DOT":"0.00000890","RCS_SIZE":"LARGE","MEAN_ELEMENT_THEORY":"SGP4","MEAN_ANOMALY":"95.7322","PERIOD":"96.211","GP_ID":"206992559","INCLINATION":"69.9991","EPHEMERIS_TYPE":"0","SITE":"AFWTR","MEAN_MOTION":"14.96716048","COUNTRY_CODE":"US","MEAN_MOTION_DDOT":"0.0000000000000","CLASSIFICATION_TYPE":"U","ECCENTRICITY":"0.00029050","LAUNCH_DATE":"2021-09-14","OBJECT_ID":"2021-082BC","DECAY_DATE":null,"REF_FRAME":"TEME","NORAD_CAT_ID":"49180","SEMIMAJOR_AXIS":"6955.188","ELEMENT_SET_NO":"999","TLE_LINE1":"1 49180U 21082BC  22178.87728005  .00000890  00000-0  85711-4 0  9995","RA_OF_ASC_NODE":"79.9361","ARG_OF_PERICENTER":"264.3505","OBJECT_TYPE":"PAYLOAD","FILE":"3504144"},{"OBJECT_NAME":"STARLINK-3059","APOAPSIS":"574.022","BSTAR":"-0.00001279700000","MEAN_MOTION_DOT":"-0.00000246","PERIAPSIS":"570.110","MEAN_ELEMENT_THEORY":"SGP4","RCS_SIZE":"LARGE","EPOCH":"2022-06-27T20:18:10.611360","CENTER_NAME":"EARTH","TIME_SYSTEM":"UTC","REV_AT_EPOCH":"4482","TLE_LINE2":"2 49181  69.9996 100.4116 0002815 265.5558  94.5279 14.98327372 44828","SITE":"AFWTR","EPHEMERIS_TYPE":"0","COUNTRY_CODE":"US","MEAN_MOTION":"14.98327372","MEAN_MOTION_DDOT":"0.0000000000000","CLASSIFICATION_TYPE":"U","ECCENTRICITY":"0.00028150","MEAN_ANOMALY":"94.5279","PERIOD":"96.107","INCLINATION":"69.9996","GP_ID":"206993311","DECAY_DATE":null,"REF_FRAME":"TEME","NORAD_CAT_ID":"49181","SEMIMAJOR_AXIS":"6950.201","ELEMENT_SET_NO":"999","TLE_LINE1":"1 49181U 21082BD  22178.84595615 -.00000246  00000-0 -12797-4 0  9993","RA_OF_ASC_NODE":"100.4116","LAUNCH_DATE":"2021-09-14","OBJECT_ID":"2021-082BD","FILE":"3504144","OBJECT_TYPE":"PAYLOAD","ARG_OF_PERICENTER":"265.5558"},{"TLE_LINE2":"2 49408  53.2148 174.0503 0002764  37.8876 322.2310 15.08844793 34670","REV_AT_EPOCH":"3467","EPOCH":"2022-06-27T16:18:21.891456","TIME_SYSTEM":"UTC","CENTER_NAME":"EARTH","PERIAPSIS":"537.819","MEAN_MOTION_DOT":"-0.00000125","RCS_SIZE":"LARGE","MEAN_ELEMENT_THEORY":"SGP4","OBJECT_NAME":"STARLINK-3151","BSTAR":"0.00001027800000","APOAPSIS":"541.643","GP_ID":"206992334","INCLINATION":"53.2148","MEAN_ANOMALY":"322.2310","PERIOD":"95.437","MEAN_MOTION_DDOT":"0.0000000000000","CLASSIFICATION_TYPE":"U","ECCENTRICITY":"0.00027640","EPHEMERIS_TYPE":"0","SITE":"AFETR","MEAN_MOTION":"15.08844793","COUNTRY_CODE":"US","LAUNCH_DATE":"2021-11-13","OBJECT_ID":"2021-104A","SEMIMAJOR_AXIS":"6917.866","ELEMENT_SET_NO":"999","RA_OF_ASC_NODE":"174.0503","TLE_LINE1":"1 49408U 21104A   22178.67942004 -.00000125  00000-0  10278-4 0  9996","REF_FRAME":"TEME","DECAY_DATE":null,"NORAD_CAT_ID":"49408","ARG_OF_PERICENTER":"37.8876","OBJECT_TYPE":"PAYLOAD","FILE":"3504144"},{"ARG_OF_PERICENTER":"44.7668","OBJECT_TYPE":"PAYLOAD","FILE":"3504144","LAUNCH_DATE":"2021-11-13","OBJECT_ID":"2021-104B","REF_FRAME":"TEME","DECAY_DATE":null,"NORAD_CAT_ID":"49409","SEMIMAJOR_AXIS":"6917.903","ELEMENT_SET_NO":"999","RA_OF_ASC_NODE":"173.9855","TLE_LINE1":"1 49409U 21104B   22178.69414123 -.00001182  00000-0 -56158-4 0  9997","MEAN_ANOMALY":"315.3537","PERIOD":"95.438","GP_ID":"206992584","INCLINATION":"53.2156","EPHEMERIS_TYPE":"0","SITE":"AFETR","MEAN_MOTION":"15.08832719","COUNTRY_CODE":"US","MEAN_MOTION_DDOT":"0.0000000000000","ECCENTRICITY":"0.00026390","CLASSIFICATION_TYPE":"U","EPOCH":"2022-06-27T16:39:33.802272","TIME_SYSTEM":"UTC","CENTER_NAME":"EARTH","TLE_LINE2":"2 49409  53.2156 173.9855 0002639  44.7668 315.3537 15.08832719 34685","REV_AT_EPOCH":"3468","OBJECT_NAME":"STARLINK-3075","BSTAR":"-0.00005615800000","APOAPSIS":"541.593","PERIAPSIS":"537.942","MEAN_MOTION_DOT":"-0.00001182","RCS_SIZE":"LARGE","MEAN_ELEMENT_THEORY":"SGP4"},{"OBJECT_ID":"2021-104C","LAUNCH_DATE":"2021-11-13","NORAD_CAT_ID":"49410","REF_FRAME":"TEME","DECAY_DATE":null,"RA_OF_ASC_NODE":"174.0243","TLE_LINE1":"1 49410U 21104C   22178.68678026  .00000956  00000-0  78219-4 0  9990","ELEMENT_SET_NO":"999","SEMIMAJOR_AXIS":"6917.891","ARG_OF_PERICENTER":"40.1939","OBJECT_TYPE":"PAYLOAD","FILE":"3504144","TIME_SYSTEM":"UTC","CENTER_NAME":"EARTH","EPOCH":"2022-06-27T16:28:57.814464","TLE_LINE2":"2 49410  53.2170 174.0243 0003513  40.1939 319.9312 15.08836431 34674","REV_AT_EPOCH":"3467","BSTAR":"0.00007821900000","APOAPSIS":"542.187","OBJECT_NAME":"STARLINK-3147","RCS_SIZE":"LARGE","MEAN_ELEMENT_THEORY":"SGP4","PERIAPSIS":"537.326","MEAN_MOTION_DOT":"0.00000956","MEAN_ANOMALY":"319.9312","PERIOD":"95.438","INCLINATION":"53.2170","GP_ID":"206993336","MEAN_MOTION":"15.08836431","COUNTRY_CODE":"US","EPHEMERIS_TYPE":"0","SITE":"AFETR","ECCENTRICITY":"0.00035130","CLASSIFICATION_TYPE":"U","MEAN_MOTION_DDOT":"0.0000000000000"}];
